[{"OBJECT_NAME":"STARLINK-6081","OBJECT_ID":"2023-046R","EPOCH":"2026-03-08T15:14:43.084896","MEAN_MOTION":15.02697277,"ECCENTRICITY":5.782e-5,"INCLINATION":43.0031,"RA_OF_ASC_NODE":164.6545,"ARG_OF_PERICENTER":245.9294,"MEAN_ANOMALY":114.1488,"EPHEMERIS_TYPE":0,"CLASSIFICATION_TYPE":"U","NORAD_CAT_ID":56108,"ELEMENT_SET_NO":999,"REV_AT_EPOCH":16190,"BSTAR":0.0013507201,"MEAN_MOTION_DOT":0.00018168,"MEAN_MOTION_DDOT":0},{"OBJECT_NAME":"FENGYUN 1C DEB","OBJECT_ID":"1999-025DNE","EPOCH":"2026-03-03T04:32:20.578848","MEAN_MOTION":15.05751159,"ECCENTRICITY":0.01321557,"INCLINATION":98.9662,"RA_OF_ASC_NODE":53.9178,"ARG_OF_PERICENTER":282.0758,"MEAN_ANOMALY":76.5683,"EPHEMERIS_TYPE":0,"CLASSIFICATION_TYPE":"U","NORAD_CAT_ID":35174,"ELEMENT_SET_NO":999,"REV_AT_EPOCH":91373,"BSTAR":0.0030573957,"MEAN_MOTION_DOT":0.00054187,"MEAN_MOTION_DDOT":0}]
